NORAD_CAT_ID,OBJECT_NAME,OBJECT_TYPE,EPOCH,MEAN_MOTION,ECCENTRICITY,INCLINATION,RA_OF_ASC_NODE,ARG_OF_PERICENTER,MEAN_ANOMALY,BSTAR,MEAN_MOTION_DOT,MEAN_MOTION_DDOT,TLE_LINE0,TLE_LINE1,TLE_LINE2,SEMIMAJOR_AXIS,PERIOD,APOGEE,PERIGEE,DECAYED
53251.0,STARLINK-4129,PAYLOAD,2022-11-22 02:53:01,15.08842922,0.0002265,53.216,197.1611,36.9159,323.1989,7.9968e-05,9.85e-06,0.0,0 STARLINK-4129,1 53251U 22086K   22326.12015444  .00000985  00000-0  79968-4 0  9995,2 53251  53.2160 197.1611 0002265  36.9159 323.1989 15.08842922 19184,6917.871,95.437,541.303,538.17,0.0
53251.0,STARLINK-4129,PAYLOAD,2022-11-22 20:22:15,15.08843805,0.0002096,53.2161,193.8898,39.2413,320.8731,0.00019083,2.75e-05,0.0,0 STARLINK-4129,1 53251U 22086K   22326.84879277  .00002750  00000-0  19083-3 0  9999,2 53251  53.2161 193.8898 0002096  39.2413 320.8731 15.08843805 19478,6917.869000000002,95.437,541.184,538.284,0.0
53251.0,STARLINK-4129,PAYLOAD,2022-11-23 01:08:25,15.0884038,0.0002305,53.2161,192.9982,36.7032,323.4118,0.00010656,1.408e-05,0.0,0 STARLINK-4129,1 53251U 22086K   22327.04751587  .00001408  00000-0  10656-3 0  9991,2 53251  53.2161 192.9982 0002305  36.7032 323.4118 15.08840380 19501,6917.879,95.438,541.339,538.15,0.0
53251.0,STARLINK-4129,PAYLOAD,2022-11-23 15:26:53,15.08837529,0.0002297,53.2158,190.322,37.3595,322.7556,0.00011682,1.571e-05,0.0,0 STARLINK-4129,1 53251U 22086K   22327.64367925  .00001571  00000-0  11682-3 0  9997,2 53251  53.2158 190.3220 0002297  37.3595 322.7556 15.08837529 19414,6917.888000000001,95.438,541.342,538.164,0.0
53251.0,STARLINK-4129,PAYLOAD,2022-11-23 21:48:26,15.08840496,0.0002341,53.2161,189.1329,38.2103,321.9055,0.00014013,1.943e-05,0.0,0 STARLINK-4129,1 53251U 22086K   22327.90863774  .00001943  00000-0  14013-3 0  9993,2 53251  53.2161 189.1329 0002341  38.2103 321.9055 15.08840496 19635,6917.879,95.438,541.363,538.124,0.0
53251.0,STARLINK-4129,PAYLOAD,2022-11-24 02:34:34,15.08864827,0.0002138,53.2159,188.2406,38.3619,321.7525,0.00043322,6.618e-05,0.0,0 STARLINK-4129,1 53251U 22086K   22328.10734413  .00006618  00000-0  43322-3 0  9992,2 53251  53.2159 188.2406 0002138  38.3619 321.7525 15.08864827 19482,6917.805,95.436,541.149,538.19,0.0
53251.0,STARLINK-4129,PAYLOAD,2022-11-24 07:20:43,15.08868068,0.0002219,53.2159,187.3487,38.2086,321.9063,0.00042965,6.562e-05,0.0,0 STARLINK-4129,1 53251U 22086K   22328.30605998  .00006562  00000-0  42965-3 0  9999,2 53251  53.2159 187.3487 0002219  38.2086 321.9063 15.08868068 19691,6917.795,95.436,541.195,538.125,0.0
53251.0,STARLINK-4129,PAYLOAD,2022-11-24 21:39:12,15.08837056,0.0002182,53.2168,184.6721,37.7591,322.3554,0.00012657,1.727e-05,0.0,0 STARLINK-4129,1 53251U 22086K   22328.90223366  .00001727  00000-0  12657-3 0  9993,2 53251  53.2168 184.6721 0002182  37.7591 322.3554 15.08837056 19600,6917.889,95.438,541.264,538.245,0.0
53251.0,STARLINK-4129,PAYLOAD,2022-11-25 02:25:22,15.08836885,0.0002179,53.2168,183.7801,36.6995,323.4146,0.00011661,1.568e-05,0.0,0 STARLINK-4129,1 53251U 22086K   22329.10095371  .00001568  00000-0  11661-3 0  9996,2 53251  53.2168 183.7801 0002179  36.6995 323.4146 15.08836885 19812,6917.89,95.438,541.262,538.248,0.0
53251.0,STARLINK-4129,PAYLOAD,2022-11-25 18:19:12,15.08847751,0.0002207,53.2156,180.8065,37.2639,322.8506,6.9558e-05,8.19e-06,0.0,0 STARLINK-4129,1 53251U 22086K   22329.76334446  .00000819  00000-0  69558-4 0  9994,2 53251  53.2156 180.8065 0002207  37.2639 322.8506 15.08847751 19731,6917.857,95.437,541.248,538.195,0.0
53251.0,STARLINK-4129,PAYLOAD,2022-11-25 21:29:59,15.0883358,0.0002246,53.2157,180.2122,39.71,320.4057,-0.0001426,-2.557e-05,0.0,0 STARLINK-4129,1 53251U 22086K   22329.89583161 -.00002557  00000-0 -14260-3 0  9990,2 53251  53.2157 180.2122 0002246  39.7100 320.4057 15.08833580 19935,6917.9,95.438,541.319,538.211,0.0
53251.0,STARLINK-4129,PAYLOAD,2022-11-26 00:40:46,15.08834611,0.0002301,53.2158,179.6174,38.4349,321.6806,-0.00012035,-2.203e-05,0.0,0 STARLINK-4129,1 53251U 22086K   22330.02831161 -.00002203  00000-0 -12035-3 0  9999,2 53251  53.2158 179.6174 0002301  38.4349 321.6806 15.08834611 19771,6917.897,95.438,541.354,538.17,0.0
53251.0,STARLINK-4129,PAYLOAD,2022-11-26 07:02:18,15.08835719,0.0002257,53.2156,178.4278,39.8243,320.2914,-9.2206e-05,-1.755e-05,0.0,0 STARLINK-4129,1 53251U 22086K   22330.29327138 -.00001755  00000-0 -92206-4 0  9992,2 53251  53.2156 178.4278 0002257  39.8243 320.2914 15.08835719 19998,6917.893,95.438,541.32,538.197,0.0
53251.0,STARLINK-4129,PAYLOAD,2022-11-26 18:10:00,15.08833916,0.0002217,53.2155,176.3461,39.0424,321.0728,-6.9156e-06,-3.98e-06,0.0,0 STARLINK-4129,1 53251U 22086K   22330.75695353 -.00000398  00000-0 -69156-5 0  9991,2 53251  53.2155 176.3461 0002217  39.0424 321.0728 15.08833916 20066,6917.899,95.438,541.298,538.23,0.0
53251.0,STARLINK-4129,PAYLOAD,2022-11-27 06:53:06,15.08836226,0.0002261,53.2152,173.9673,40.8931,319.223,0.00012628,1.722e-05,0.0,0 STARLINK-4129,1 53251U 22086K   22331.28687519  .00001722  00000-0  12628-3 0  9995,2 53251  53.2152 173.9673 0002261  40.8931 319.2230 15.08836226 19964,6917.892,95.438,541.321,538.193,0.0
53251.0,STARLINK-4129,PAYLOAD,2022-11-27 19:36:11,15.08839749,0.0002367,53.2153,171.5884,46.0299,314.0888,0.00021136,3.077e-05,0.0,0 STARLINK-4129,1 53251U 22086K   22331.81679691  .00003077  00000-0  21136-3 0  9995,2 53251  53.2153 171.5884 0002367  46.0299 314.0888 15.08839749 20221,6917.880999999999,95.438,541.384,538.109,0.0
53251.0,STARLINK-4129,PAYLOAD,2022-11-28 06:43:53,15.08844027,0.0002367,53.2152,169.5069,43.4603,316.6575,0.00033161,4.994e-05,0.0,0 STARLINK-4129,1 53251U 22086K   22332.28047684  .00004994  00000-0  33161-3 0  9998,2 53251  53.2152 169.5069 0002367  43.4603 316.6575 15.08844027 20295,6917.868,95.437,541.371,538.096,0.0
53251.0,STARLINK-4129,PAYLOAD,2022-11-29 00:13:08,15.08828517,0.0002368,53.216,166.2358,44.4859,315.6322,-2.7849e-05,-7.31e-06,0.0,0 STARLINK-4129,1 53251U 22086K   22333.00912597 -.00000731  00000-0 -27849-4 0  9997,2 53251  53.2160 166.2358 0002368  44.4859 315.6322 15.08828517 20222,6917.915,95.438,541.419,538.1419999999998,0.0
53251.0,STARLINK-4129,PAYLOAD,2022-11-29 06:34:41,15.08829974,0.000235,53.2168,165.0463,44.6884,315.4297,1.7475e-05,-1e-07,0.0,0 STARLINK-4129,1 53251U 22086K   22333.27408940 -.00000010  00000-0  17475-4 0  9991,2 53251  53.2168 165.0463 0002350  44.6884 315.4297 15.08829974 20446,6917.911,95.438,541.4019999999998,538.15,0.0
53251.0,STARLINK-4129,PAYLOAD,2022-11-29 19:17:46,15.0883081,0.0002364,53.2166,162.6676,50.9363,309.1839,-1.0137e-05,-4.5e-06,0.0,0 STARLINK-4129,1 53251U 22086K   22333.80401177 -.00000450  00000-0 -10137-4 0  9992,2 53251  53.2166 162.6676 0002364  50.9363 309.1839 15.08830810 20522,6917.908,95.438,541.409,538.138,0.0
53251.0,STARLINK-4129,PAYLOAD,2022-11-30 00:03:57,15.08812661,0.0002296,53.2166,161.7754,45.7116,314.4064,-0.00017301,-3.039e-05,0.0,0 STARLINK-4129,1 53251U 22086K   22334.00274983 -.00003039  00000-0 -17301-3 0  9993,2 53251  53.2166 161.7754 0002296  45.7116 314.4064 15.08812661 20377,6917.964,95.439,541.4169999999998,538.241,0.0
53251.0,STARLINK-4129,PAYLOAD,2022-11-30 19:08:34,15.08831815,0.0002239,53.2166,158.2076,41.4785,318.6376,8.0956e-05,1e-05,0.0,0 STARLINK-4129,1 53251U 22086K   22334.79761771  .00001000  00000-0  80956-4 0  9996,2 53251  53.2166 158.2076 0002239  41.4785 318.6376 15.08831815 20494,6917.905,95.438,541.319,538.221,0.0
53251.0,STARLINK-4129,PAYLOAD,2022-12-01 12:37:49,15.08838233,0.000225,53.216,154.9365,44.0638,316.0533,0.00025777,3.816e-05,0.0,0 STARLINK-4129,1 53251U 22086K   22335.52626242  .00003816  00000-0  25777-3 0  9997,2 53251  53.2160 154.9365 0002250  44.0638 316.0533 15.08838233 20781,6917.886,95.438,541.307,538.194,0.0
53251.0,STARLINK-4129,PAYLOAD,2022-12-01 18:59:21,15.08842911,0.0002254,53.2161,153.747,45.1772,314.9403,0.00031494,4.728e-05,0.0,0 STARLINK-4129,1 53251U 22086K   22335.79122175  .00004728  00000-0  31494-3 0  9998,2 53251  53.2161 153.7470 0002254  45.1772 314.9403 15.08842911 20827,6917.871,95.437,541.2959999999998,538.177,0.0
53251.0,STARLINK-4129,PAYLOAD,2022-12-02 12:28:35,15.08854382,0.0002254,53.216,150.4757,44.4695,315.6478,0.00032769,4.933e-05,0.0,0 STARLINK-4129,1 53251U 22086K   22336.51985655  .00004933  00000-0  32769-3 0  9993,2 53251  53.2160 150.4757 0002254  44.4695 315.6478 15.08854382 20751,6917.8359999999975,95.437,541.261,538.1419999999998,0.0
53251.0,STARLINK-4129,PAYLOAD,2022-12-02 18:50:07,15.08855586,0.0002253,53.216,149.2862,44.2474,315.8698,0.00025069,3.705e-05,0.0,0 STARLINK-4129,1 53251U 22086K   22336.78481343  .00003705  00000-0  25069-3 0  9998,2 53251  53.2160 149.2862 0002253  44.2474 315.8698 15.08855586 20973,6917.833000000001,95.437,541.256,538.139,0.0
53251.0,STARLINK-4129,PAYLOAD,2022-12-03 12:19:21,15.08851903,0.0002182,53.2184,146.0151,59.082,301.0386,9.1238e-05,1.165e-05,0.0,0 STARLINK-4129,1 53251U 22086K   22337.51344850  .00001165  00000-0  91238-4 0  9991,2 53251  53.2184 146.0151 0002182  59.0820 301.0386 15.08851903 21088,6917.844,95.437,541.2180000000002,538.2,0.0
53251.0,STARLINK-4129,PAYLOAD,2022-12-03 15:30:08,15.08845936,0.0002353,53.2179,145.4227,57.2869,302.835,-4.7905e-05,-1.051e-05,0.0,0 STARLINK-4129,1 53251U 22086K   22337.64593046 -.00001051  00000-0 -47905-4 0  9996,2 53251  53.2179 145.4227 0002353  57.2869 302.8350 15.08845936 20923,6917.861999999999,95.437,541.355,538.099,0.0
53251.0,STARLINK-4129,PAYLOAD,2022-12-04 12:10:08,15.08846263,0.0002218,53.2161,141.5543,45.5357,314.5816,1.1534000000000003e-05,-1.05e-06,0.0,0 STARLINK-4129,1 53251U 22086K   22338.50704798 -.00000105  00000-0  11534-4 0  9997,2 53251  53.2161 141.5543 0002218  45.5357 314.5816 15.08846263 21230,6917.861,95.437,541.261,538.192,0.0
